[Satellite]
VERSION=1.1
NAME=CZ-6A DEB
NICKNAME=CZ-6A DEB
TLE1=1 54454U 22151GE  22341.96405266  .00002367  00000+0  24163-2 0  9998
TLE2=2 54454  98.8062 344.6067 0259301   6.9642 353.4996 13.63765831  3357
STATUS=0
